ONEWEB-0311             
1 49097U 21075Y   26002.09930429  .00000058  00000+0  11496-3 0  9996
2 49097  87.9098  38.8722 0002014 105.0840 255.0514 13.17650947211758
ONEWEB-0312             
1 49098U 21075Z   26002.11451281  .00000089  00000+0  19513-3 0  9996
2 49098  87.9086  38.8930 0001692 107.9832 252.1484 13.17649791211737
ONEWEB-0313             
1 49099U 21075AA  26002.11944012  .00000045  00000+0  82419-4 0  9994
2 49099  87.9084  38.8993 0001810  98.9913 261.1423 13.17649124211728
ONEWEB-0314             
1 49100U 21075AB  26002.08582517  .00000137  00000+0  31956-3 0  9992
2 49100  87.9100  38.8612 0001757 111.1890 248.9430 13.17649728211697
ONEWEB-0315             
1 49101U 21075AC  26002.08772201 -.00000329  00000+0 -95031-3 0  9993
2 49101  87.8928  23.6272 0002098  98.2124 261.9243 13.12442536213381
ONEWEB-0316             
1 49102U 21075AD  26001.98933397 -.00000162  00000+0 -44320-3 0  9997
2 49102  87.9171   8.4687 0001793  91.9985 268.1353 13.18685101215308
ONEWEB-0317             
1 49103U 21075AE  26002.08540735 -.00000424  00000+0 -12237-2 0  9992
2 49103  87.8924  23.6473 0001111  72.5773 287.5477 13.11885078213409
ONEWEB-0318             
1 49104U 21075AF  26002.06190979 -.00000214  00000+0 -57452-3 0  9998
2 49104  87.9172   8.4421 0001929  95.1245 265.0108 13.18685747215279
